STARLINK-1042
1 44747U 19074AL  26092.69704304  .00031592  00000+0  53773-3 0  9996
2 44747  53.0448 339.4989 0001414 160.7550 199.3511 15.51146759353791
STARLINK-1270
1 45237U 20012BM  26092.91668981  .00120626  00000+0  20097-2 0  9999
2 45237  53.0459 231.4811 0002117 287.4572 124.1216 15.51129215  5649
STARLINK-1371
1 45542U 20025M   26092.87757545  .00121989  00000+0  20295-2 0  9995
2 45542  53.0497 333.5215 0001403 154.1901 205.9177 15.51163987329080
STARLINK-1810
1 46709U 20073AR  26092.83335647  .00102079  00000+0  17055-2 0  9994
2 46709  53.0448 116.2931 0002519   4.1098  39.6659 15.51135248  5833
STARLINK-1972
1 47627U 21012H   26092.83335647  .00118041  00000+0  19634-2 0  9999
2 47627  53.0511 208.9164 0005051 315.2407 355.3179 15.51178816  5894
